[{"OBJECT_NAME":"STARLINK-31769","OBJECT_ID":"2024-080S","EPOCH":"2026-03-09T22:01:33.301920","MEAN_MOTION":15.27558866,"ECCENTRICITY":0.00014814,"INCLINATION":43.003,"RA_OF_ASC_NODE":36.9508,"ARG_OF_PERICENTER":250.4361,"MEAN_ANOMALY":109.6331,"EPHEMERIS_TYPE":0,"CLASSIFICATION_TYPE":"U","NORAD_CAT_ID":59617,"ELEMENT_SET_NO":999,"REV_AT_EPOCH":10456,"BSTAR":-6.6305038e-5,"MEAN_MOTION_DOT":-2.085e-5,"MEAN_MOTION_DDOT":0},{"OBJECT_NAME":"COSMOS 1975","OBJECT_ID":"1988-093A","EPOCH":"2026-03-09T14:15:08.474112","MEAN_MOTION":15.28069249,"ECCENTRICITY":0.0012117,"INCLINATION":82.5181,"RA_OF_ASC_NODE":117.7814,"ARG_OF_PERICENTER":163.8427,"MEAN_ANOMALY":196.3201,"EPHEMERIS_TYPE":0,"CLASSIFICATION_TYPE":"U","NORAD_CAT_ID":19573,"ELEMENT_SET_NO":999,"REV_AT_EPOCH":1939,"BSTAR":0.0002787,"MEAN_MOTION_DOT":7.676e-5,"MEAN_MOTION_DDOT":0}]
